COSMO-SKYMED 3          
1 33412U 08054A   17346.49001069  .00000346  00000-0  50046-4 0  9992
2 33412  97.8870 167.6491 0001572  90.1723 269.9687 14.82154539494067
